BEESAT-1                
1 35933U 09051C   26139.22195898  .00000496  00000+0  10960-3 0  9990
2 35933  98.3983  46.3002 0004593 331.8843  28.2109 14.61667178884954
ITUPSAT1                
1 35935U 09051E   26139.18753492  .00000454  00000+0  10393-3 0  9991
2 35935  98.4068  45.4878 0006997 339.3599  20.7317 14.60391532884509
XIWANG-1 (HOPE-1)       
1 36122U 09072B   26139.28821740  .00000190  00000+0  61454-3 0  9997
2 36122 100.4016  93.5849 0006972 303.5879  56.4568 13.16439778789204
O/OREOS (USA 219)       
1 37224U 10062C   26139.12996726  .00001204  00000+0  11987-3 0  9995
2 37224  71.9680 146.1513 0012748 126.7738 233.4605 14.93607354112300
JUGNU                   
1 37839U 11058B   26139.15137891  .00000366  00000+0  51619-4 0  9991
2 37839  19.9594 124.8247 0018770 115.6487 328.0214 14.13767405754916
SRMSAT                  
1 37841U 11058D   26139.30281198  .00000362  00000+0  52817-4 0  9998
2 37841  19.9714 234.3049 0011590 246.4740 146.2455 14.11568819753730
STRAND-1                
1 39090U 13009E   26139.02355178  .00000159  00000+0  67750-4 0  9999
2 39090  98.3916 319.9771 0007840 325.2771  34.7904 14.37144285692870
ZACUBE-1 (TSHEPISOSAT)  
1 39417U 13066B   26139.14344684  .00002951  00000+0  23245-3 0  9990
2 39417  97.8123 101.3230 0041065 350.4398   9.6039 15.00943817676378
GOMX-1                  
1 39430U 13066Q   26139.31285652  .00001234  00000+0  19153-3 0  9999
2 39430  97.6496 341.5969 0129002 169.5818 190.8109 14.69332878665670
CUBEBUG-2 (LO-74)       
1 39440U 13066AA  26139.18963509  .00002048  00000+0  19364-3 0  9997
2 39440  97.8896  88.0549 0059252 122.6964 237.9989 14.93512493672661
FUNCUBE-1 (AO-73)       
1 39444U 13066AE  26138.48756626  .00003751  00000+0  23785-3 0  9997
2 39444  97.8264 109.3260 0034896 306.8242  52.9786 15.09070822675186
UWE-3                   
1 39446U 13066AG  26138.60277945  .00002656  00000+0  23180-3 0  9997
2 39446  97.8682  94.4880 0050461  59.2487 301.3689 14.96745846673158
UNISAT-6                
1 40012U 14033C   26139.28783503  .00001844  00000+0  20284-3 0  9990
2 40012  97.7846 292.5185 0045706 162.1428 198.1408 14.88057256641860
DUCHIFAT-1              
1 40021U 14033M   26139.12335227  .00061236  00000+0  78320-3 0  9994
2 40021  98.0491 194.3373 0006206 171.2568 188.8795 15.59011194651211
QB50P1                  
1 40025U 14033R   26139.27851312  .00004776  00000+0  24013-3 0  9998
2 40025  98.0974 148.4085 0007711 335.9762  24.1109 15.17765963648646
LILACSAT-2              
1 40908U 15049K   26139.23835400  .00012379  00000+0  21923-3 0  9997
2 40908  97.4675 174.9973 0006910  16.5420 343.6056 15.50407639591265
FOX-1A (AO-85)          
1 40967U 15058D   26138.63672456  .00002064  00000+0  19406-3 0  9998
2 40967  64.7765  10.8054 0129201  68.1875 293.2924 14.90780838109167
CAS-2T & KS-1Q          
1 41847U 16066G   26139.14969111  .00000693  00000+0  10698-3 0  9990
2 41847  98.3826 215.2153 0341367 217.5100 140.1828 14.44599136500602
RADFXSAT (FOX-1B)       
1 43017U 17073E   26139.16404155  .00006242  00000+0  27433-3 0  9995
2 43017  97.4739   6.9810 0153827  69.1195 292.6428 15.12138615461004
DIWATA-2B               
1 43678U 18084H   26139.29261686  .00001883  00000+0  15531-3 0  9997
2 43678  98.1109 334.2590 0011680 270.1715  89.8169 15.00298063411880
ES'HAIL 2               
1 43700U 18090A   26139.24357788  .00000144  00000+0  00000+0 0  9994
2 43700   0.0158 337.1039 0001287 111.3645 261.9369  1.00269765 27387
FOX-1CLIFF (AO-95)      
1 43770U 18099N   26139.10143053  .00007987  00000+0  31279-3 0  9991
2 43770  97.4398 199.4674 0010471  93.2967 266.9469 15.26018089408781
ITASAT                  
1 43786U 18099AE  26139.09979321  .00004755  00000+0  23227-3 0  9995
2 43786  97.4046 191.1976 0014401  95.0825 265.2054 15.18641170408496
JY1SAT (JO-97)          
1 43803U 18099AX  26139.11698420  .00011732  00000+0  37434-3 0  9994
2 43803  97.4142 201.8701 0005751  31.4913 328.6673 15.32643998409171
UWE-4                   
1 43880U 18111E   26139.26712977  .00020085  00000+0  43842-3 0  9995
2 43880  97.5864  66.3694 0010412  75.3318 284.9083 15.44192988406312
TIANYAN 01              
1 44881U 19093C   26139.30172273  .00001065  00000+0  12638-3 0  9997
2 44881  97.7539 212.2375 0013568 175.4857 184.6484 14.86468453347120
RS-44 & BREEZE-KM R/B   
1 44909U 19096E   26139.07797261  .00000024  00000+0  54343-4 0  9999
2 44909  82.5232 359.0518 0216870 212.2095 146.5607 12.79748275298624
SALSAT                  
1 46495U 20068K   26138.44490691  .00004803  00000+0  17157-3 0  9999
2 46495  97.8853 139.7110 0011187  54.3549 305.8730 15.29321812310813
XW-3 (CAS-9)            
1 50466U 21131B   26139.31476072  .00000274  00000+0  98185-4 0  9997
2 50466  98.4970 231.8628 0004297 168.1102 192.0190 14.41326740230954
GREENCUBE (IO-117)      
1 53109U 22080E   26138.45774430 -.00000003  00000+0  00000+0 0  9996
2 53109  70.1432 308.5883 0008836 296.6746  63.3009  6.42583323 90159
UMKA 1 (RS40S)          
1 57172U 23091G   26139.27170360  .00003294  00000+0  15393-3 0  9995
2 57172  97.5064 198.0852 0012016 213.9771 146.0696 15.20449746159614
CUBESX-HSE 3 (RS42S)    
1 57178U 23091N   26139.28164957  .00007793  00000+0  26719-3 0  9999
2 57178  97.5102 204.5192 0011038 186.3590 173.7512 15.30406888160008
MONITOR-3 (RS58S)       
1 57180U 23091Q   26139.24389010  .00006480  00000+0  24547-3 0  9996
2 57180  97.5094 202.4892 0011672 193.8501 166.2420 15.27196857159870
MONITOR-4 (RS57S)       
1 57182U 23091S   26139.22473714  .00006200  00000+0  23433-3 0  9994
2 57182  97.5089 202.4393 0011614 194.3858 165.7052 15.27293663159877
MONITOR-2 (RS39S)       
1 57184U 23091U   26139.25734172  .00002932  00000+0  14489-3 0  9996
2 57184  97.5089 197.7307 0010587 205.4986 154.5727 15.18610834159568
SVYATOBOR 1 (RS60S)     
1 57187U 23091X   26139.27928819  .00005283  00000+0  20770-3 0  9996
2 57187  97.5101 202.9461 0009574 184.4355 175.6799 15.26067581159901
VIZARD-METEO (RS38S)    
1 57189U 23091Z   26139.27877933  .00010342  00000+0  30650-3 0  9998
2 57189  97.5100 208.2052 0008263 164.3117 195.8383 15.35014995160258
POLYTECH-UNIVERSE 3 (R*)
1 57191U 23091AB  26139.22244390  .00003026  00000+0  14839-3 0  9993
2 57191  97.5062 197.2009 0014488 225.5305 134.4746 15.18808424159554
UTMN 2 (RS27S)          
1 57203U 23091AP  26139.24992832  .00008148  00000+0  27210-3 0  9997
2 57203  97.5096 206.0852 0008694 171.3162 188.8231 15.31268113160117
KUZGTU 1 (RS47S)        
1 57217U 23091AV  26139.24786110  .00007432  00000+0  26516-3 0  9995
2 57217  97.5075 203.4471 0011068 190.3035 169.7980 15.29127350159959
SONATE-2                
1 59112U 24043Q   26138.39254390  .00023059  00000+0  32698-3 0  9995
2 59112  97.5509 287.0209 0005799 308.5248  51.5486 15.56448045123257
MESAT1                  
1 60209U 24125G   26139.14167335  .00035663  00000+0  44080-3 0  9993
2 60209  97.2325 356.0264 0008565 330.7197  29.3580 15.60008400105037
OOV-CUBE (TUBSAT-30)    
1 60240U 24128F   26139.24260196  .00001502  00000+0  12538-3 0  9999
2 60240  61.9945 326.4904 0048246 127.4537 233.0958 15.02609411101763
COLIBRI-S (RS67S)       
1 61746U 24199M   26139.27888716  .00013614  00000+0  27638-3 0  9990
2 61746  97.3027  12.8923 0009523  37.7732 322.4184 15.46417231132944
HORS 3 (RS81S)          
1 61753U 24199U   26139.23977877  .00021884  00000+0  35355-3 0  9994
2 61753  97.3013  14.5449 0007724  45.5582 314.6302 15.52852088133069
HORS 4 (RS82S)          
1 61754U 24199V   26139.28116803  .00028402  00000+0  39564-3 0  9993
2 61754  97.2963  15.6167 0006624  43.4305 316.7471 15.56878590133149
ARCTICSAT 1 (RS74S)     
1 61762U 24199AD  26139.02208474  .00227774  00000+0  85897-3 0  9993
2 61762  97.2886  20.9483 0002202 105.4682 254.6833 15.87179769133460
SIT-2086                
1 61764U 24199AF  26139.24733683  .00022128  00000+0  38226-3 0  9994
2 61764  97.2979  15.1270 0007423  27.4652 332.6991 15.50971332129941
HYPERVIEW 1G (RS66S)    
1 61772U 24199AP  26139.29265494  .00063641  00000+0  55326-3 0  9993
2 61772  97.2925  17.7054 0006259  44.8948 315.2819 15.68852804130136
ALTAIR (RS65S)          
1 61779U 24199AW  26139.26578460  .00007320  00000+0  20753-3 0  9995
2 61779  97.3060   8.8147 0014352  55.6530 304.6070 15.36437489132673
ASRTU-1 (AO-123)        
1 61781U 24199AY  26139.29473496  .00005092  00000+0  15076-3 0  9990
2 61781  97.3031   8.2301 0015510  57.3151 302.9586 15.35210963129499
SAMSAT-IONOSPHERE (RS7*)
1 61784U 24199BB  26139.25372211  .00027713  00000+0  41370-3 0  9992
2 61784  97.2984  14.5125 0009766  42.3409 317.8597 15.54969183133069
RTU MIREA 1 (RS51S)     
1 61785U 24199BC  26139.27238393  .00033088  00000+0  44394-3 0  9998
2 61785  97.2976  15.2282 0009474  40.0026 320.1926 15.57832232129963
TEVEL2-4                
1 63213U 25052D   26139.22054831  .00010800  00000+0  33580-3 0  9995
2 63213  97.3933  35.5841 0002431 158.4179 201.7167 15.33501761 65672
TEVEL2-5                
1 63214U 25052E   26139.23794539  .00010535  00000+0  32927-3 0  9992
2 63214  97.3932  35.5573 0002380 157.6383 202.4964 15.33344467 65676
TEVEL2-6                
1 63215U 25052F   26138.46644105  .00010787  00000+0  33767-3 0  9992
2 63215  97.3937  34.7706 0002397 161.5493 198.5837 15.33288647 65553
TEVEL2-1                
1 63217U 25052H   26139.20365914  .00010553  00000+0  33537-3 0  9991
2 63217  97.3910  35.1653 0001944 172.3104 187.8168 15.32811898 65656
TEVEL2-3                
1 63218U 25052J   26139.26456222  .00010505  00000+0  33333-3 0  9992
2 63218  97.3911  35.2446 0001980 170.9929 189.1349 15.32861273 65667
TEVEL2-2                
1 63219U 25052K   26139.13883151  .00010345  00000+0  32879-3 0  9990
2 63219  97.3907  35.1025 0001878 173.5610 186.5657 15.32816144 65645
